ONEWEB-0607             
1 54671U 22166AF  25242.14870698  .00000002  00000+0 -25982-4 0  9990
2 54671  87.9234 302.0458 0002104  94.4387 265.6987 13.21826504133093
ONEWEB-0608             
1 54672U 22166AG  25242.07926208 -.00000021  00000+0 -83545-4 0  9993
2 54672  87.9226 302.0442 0002461  95.3351 264.8064 13.21823401133095
ONEWEB-0610             
1 54673U 22166AH  25242.13605859  .00000018  00000+0  12989-4 0  9995
2 54673  87.9235 302.0692 0002570  96.0788 264.0639 13.21825807133009
ONEWEB-0611             
1 54674U 22166AJ  25242.12971901  .00000053  00000+0  96106-4 0  9991
2 54674  87.9233 302.0667 0001720  95.9616 264.1714 13.21828128132995
ONEWEB-0612             
1 54675U 22166AK  25242.14236752  .00000004  00000+0 -22510-4 0  9997
2 54675  87.9233 302.0418 0002144  95.3790 264.7588 13.21827235132980
ONEWEB-0615             
1 54676U 22166AL  25242.12340270  .00000120  00000+0  25947-3 0  9991
2 54676  87.9235 302.0721 0001944  95.8890 264.2466 13.21829190132996
ONEWEB-0655             
1 54677U 22166AM  25242.09665396  .00000011  00000+0 -50155-5 0  9998
2 54677  87.9235 302.0820 0002046  87.7504 272.3864 13.21826159132986
ONEWEB-0659             
1 54678U 22166AN  25242.11396703  .00000122  00000+0  26391-3 0  9990
2 54678  87.9230 302.0797 0001840 100.3680 259.7662 13.21827928133074
